     2.11           N: GPS NAV DATA                         RINEX VERSION / TYPE
teqc  2019Feb25                         20221121 12:24:46UTCPGM / RUN BY / DATE
OSX ker:10.11.6|Core i5|gcc 4.3 -m64|OSX ker:10.10+|=+      COMMENT
    4.6566D-09  1.4901D-08 -5.9605D-08 -1.1921D-07          ION ALPHA
    8.1920D+04  8.1920D+04 -6.5536D+04 -5.2429D+05          ION BETA
   -3.725290298462D-09-7.993605777301D-15   589824     1538 DELTA-UTC: A0,A1,T,W
                                                            END OF HEADER
 8 09  7  1 23 59 44.0-2.099485136569D-04-1.477928890381D-12 0.000000000000D+00
    7.000000000000D+00-8.221875000000D+01 3.736941372894D-09-9.129597162081D-01
   -4.496425390244D-06 1.068423676770D-02 8.594244718552D-06 5.153642320633D+03
    3.455840000000D+05 6.332993507385D-08 2.179845445987D+00-1.471489667892D-07
    9.890529158753D-01 2.249687500000D+02 2.996504043118D+00-7.665319291316D-09
    3.371569010811D-10 1.000000000000D+00 1.538000000000D+03 0.000000000000D+00
    2.000000000000D+00 0.000000000000D+00-3.725290298462D-09 7.000000000000D+00
    3.400080000000D+05 4.000000000000D+00
